[{"OBJECT_NAME":"ION SCV-010","OBJECT_ID":"2023-054Q","EPOCH":"2026-03-09T16:02:35.904768","MEAN_MOTION":15.25210322,"ECCENTRICITY":0.00127052,"INCLINATION":97.3904,"RA_OF_ASC_NODE":319.4312,"ARG_OF_PERICENTER":188.785,"MEAN_ANOMALY":171.3168,"EPHEMERIS_TYPE":0,"CLASSIFICATION_TYPE":"U","NORAD_CAT_ID":56192,"ELEMENT_SET_NO":999,"REV_AT_EPOCH":16102,"BSTAR":0.00025045068,"MEAN_MOTION_DOT":6.231e-5,"MEAN_MOTION_DDOT":0},{"OBJECT_NAME":"STARLINK-34163","OBJECT_ID":"2025-101Q","EPOCH":"2026-03-09T04:03:05.566752","MEAN_MOTION":15.27598639,"ECCENTRICITY":0.00038207,"INCLINATION":43.0016,"RA_OF_ASC_NODE":1.0719,"ARG_OF_PERICENTER":246.0935,"MEAN_ANOMALY":113.9516,"EPHEMERIS_TYPE":0,"CLASSIFICATION_TYPE":"U","NORAD_CAT_ID":64008,"ELEMENT_SET_NO":999,"REV_AT_EPOCH":4697,"BSTAR":0.0016562028,"MEAN_MOTION_DOT":0.00045628,"MEAN_MOTION_DDOT":0}]
